FENGYUN 1C DEB          
1 31486U 99025BWA 17344.00698266  .00001326  00000-0  59902-3 0  9993
2 31486 102.2774  55.3325 0025894 225.4694 134.4356 14.24811137548926
